{
  "last_updated": "2026-07-16T06:00:03.280762",
  "satellites": {
    "98592": {
      "name": "DUTHSat-2",
      "norad_id": "98592",
      "tle": "1 64530U 25135C   26196.82714074  .00006559  00000-0  24609-3 0  9990\n2 64530  97.4650 312.7413 0006141  95.4496 264.7443 15.27551973 59303",
      "epoch": "2026-07-15T19:51:04.959936",
      "fetched_at": "2026-07-16T06:00:03.419740",
      "source": "satnogs"
    },
    "98530": {
      "name": "LAMARR",
      "norad_id": "98530",
      "tle": "1 66673U 25276H   26026.90917087  .00034524  00000-0  16680-2 0  9998\n2 66673  97.4301 102.8338 0007597 141.5941 218.5835 15.18529012  8972",
      "epoch": "2026-01-26T21:49:12.363168",
      "fetched_at": "2026-01-28T06:00:02.884758",
      "source": "satnogs",
      "note": "Using previous TLE (fetch/manual failed today)"
    },
    "98529": {
      "name": "DIRAC",
      "norad_id": "98529",
      "tle": "1 66681U 25276R   26026.63281774  .00024563  00000-0  11745-2 0  9993\n2 66681  97.4280 102.5712 0006320 148.4115 211.7500 15.18972786  8932",
      "epoch": "2026-01-26T15:11:15.452736",
      "fetched_at": "2026-01-28T06:00:02.937152",
      "source": "satnogs",
      "note": "Using previous TLE (fetch/manual failed today)"
    },
    "98518": {
      "name": "MICE-1",
      "norad_id": "98518",
      "tle": "1 66684U 25276U   26196.76349713  .00002060  00000-0  10062-3 0  9996\n2 66684  97.4265 269.9176 0003878 243.2087 116.8752 15.19374748 34755",
      "epoch": "2026-07-15T18:19:26.152032",
      "fetched_at": "2026-07-16T06:00:03.620845",
      "source": "satnogs"
    },
    "68416": {
      "name": "PeakSat",
      "norad_id": "68416",
      "tle": "1 68416U 26067A   26196.86659867  .00002928  00000-0  13991-3 0  9992\n2 68416  97.4563 155.0963 0003262 131.9086 228.2428 15.19813248 16301",
      "epoch": "2026-07-15T20:47:54.125088",
      "fetched_at": "2026-07-16T06:00:03.676552",
      "source": "satnogs"
    },
    "98370": {
      "name": "OptiSat",
      "norad_id": "98370",
      "tle": "1 69696U 69696    26089.46895426  .00000000  00000-0  00000-0 0 00004\n2 69696 097.4414 038.3720 0003145 156.7651 191.1423 15.18459822000011",
      "epoch": "2026-03-30T11:15:17.648064",
      "fetched_at": "2026-04-17T12:47:18.541523",
      "source": "manual"
    },
    "68468": {
      "name": "ERMIS-1",
      "norad_id": "68468",
      "tle": "1 68468U 26067BE  26196.86627095  .00004266  00000-0  21223-3 0  9991\n2 68468  97.4562 154.8047 0005462 337.0452  23.0537 15.18136585 16287",
      "epoch": "2026-07-15T20:47:25.810080",
      "fetched_at": "2026-07-16T06:00:03.762953",
      "source": "satnogs"
    },
    "68420": {
      "name": "ERMIS-2",
      "norad_id": "68420",
      "tle": "1 68420U 26067E   26196.85659589  .00004915  00000-0  22976-3 0  9998\n2 68420  97.4491 155.0197 0003300 108.7144 251.4450 15.20239849 16309",
      "epoch": "2026-07-15T20:33:29.884896",
      "fetched_at": "2026-07-16T06:00:03.822056",
      "source": "satnogs"
    },
    "98367": {
      "name": "ERMIS-3",
      "norad_id": "98367",
      "tle": "1 68425U 26067K   26196.84354198  .00003408  00000-0  16572-3 0  9991\n2 68425  97.4603 155.0340 0001348 140.1717 219.9616 15.19090722 16299",
      "epoch": "2026-07-15T20:14:42.027072",
      "fetched_at": "2026-07-16T06:00:03.916302",
      "source": "satnogs"
    },
    "69021": {
      "name": "Helios",
      "norad_id": "69021",
      "tle": "1 69021U 26100AT  26195.95061559  .00003534  00000-0  16551-3 0  9996\n2 69021  97.3995  93.2037 0002820 237.2410 122.8554 15.20357964 11020",
      "epoch": "2026-07-14T22:48:53.186976",
      "fetched_at": "2026-07-16T06:00:03.990569",
      "source": "satnogs"
    },
    "69020": {
      "name": "Selene",
      "norad_id": "69020",
      "tle": "1 69020U 26100AS  26196.94436813  .00003026  00000-0  14301-3 0  9991\n2 69020  97.4007  94.1817 0002527 218.7243 141.3811 15.20163141 11172",
      "epoch": "2026-07-15T22:39:53.406432",
      "fetched_at": "2026-07-16T06:00:04.050424",
      "source": "satnogs"
    }
  },
  "fetch_log": []
}